{"fetched_at":"2026-03-29T16:36:15Z","count":15609,"tles":[{"name":"KUIPER-00130","line1":"1 65959U 25228N   26087.74960840  .00004097  00000+0  56611-3 0  9995","line2":"2 65959  51.9016 266.3327 0000666 109.1943 250.9091 14.79935850 16488","category":"Other"}]}